[Satellite]
VERSION=1.1
NAME=CZ-6A DEB
NICKNAME=CZ-6A DEB
TLE1=1 54470U 22151GW  22342.47266682  .00004819  00000+0  16435-2 0  9997
TLE2=2 54470  98.6990 347.2267 0122501 234.3348 124.6381 14.32742286  3537
STATUS=0
